NORAD_CAT_ID,OBJECT_NAME,OBJECT_TYPE,EPOCH,MEAN_MOTION,ECCENTRICITY,INCLINATION,RA_OF_ASC_NODE,ARG_OF_PERICENTER,MEAN_ANOMALY,BSTAR,MEAN_MOTION_DOT,MEAN_MOTION_DDOT,TLE_LINE0,TLE_LINE1,TLE_LINE2,SEMIMAJOR_AXIS,PERIOD,APOGEE,PERIGEE,DECAYED
49450.0,STARLINK-3127,PAYLOAD,2022-03-25 14:00:01,15.08859215,0.0001771,53.2174,226.465,40.0271,243.9956,-0.0037771,-0.00059933,0.0,0 STARLINK-3127,1 49450U 21104AU  22084.58334491 -.00059933  00000-0 -37771-2 0  9991,2 49450  53.2174 226.4650 0001771  40.0271 243.9956 15.08859215  3589,6917.821999999999,95.436,540.9119999999998,538.462,0.0
49450.0,STARLINK-3127,PAYLOAD,2022-03-25 22:00:01,15.08822352,0.0001849,53.2173,224.9691,34.7232,260.9527,0.00091997,0.00014377,0.0,0 STARLINK-3127,1 49450U 21104AU  22084.91668981  .00014377  00000-0  91997-3 0  9994,2 49450  53.2173 224.9691 0001849  34.7232 260.9527 15.08822352 21731,6917.934,95.439,541.078,538.52,0.0
49450.0,STARLINK-3127,PAYLOAD,2022-03-26 14:00:01,15.08684178,0.0001740999999999,53.2175,221.9627,36.0092,282.8086,0.014065,0.00229972,0.0,0 STARLINK-3127,1 49450U 21104AU  22085.58334491  .00229972  00000-0  14065-1 0  9992,2 49450  53.2175 221.9627 0001741  36.0092 282.8086 15.08684178 21835,6918.357,95.447,541.4259999999998,539.0169999999998,0.0
49450.0,STARLINK-3127,PAYLOAD,2022-03-26 22:00:00,15.08824947,0.0001969,53.2174,220.4801,38.0859,292.2834,0.00031505,4.727e-05,0.0,0 STARLINK-3127,1 49450U 21104AU  22085.91667824  .00004727  00000-0  31505-3 0  9997,2 49450  53.2174 220.4801 0001969  38.0859 292.2834 15.08824947 21888,6917.926,95.439,541.154,538.429,0.0
49450.0,STARLINK-3127,PAYLOAD,2022-03-27 14:00:01,15.08854361,0.0001919,53.2179,217.4872,41.0593,312.4806,-0.0011182,-0.00018047,0.0,0 STARLINK-3127,1 49450U 21104AU  22086.58334491 -.00018047  00000-0 -11182-2 0  9992,2 49450  53.2179 217.4872 0001919  41.0593 312.4806 15.08854361  3608,6917.8359999999975,95.437,541.029,538.374,0.0
49450.0,STARLINK-3127,PAYLOAD,2022-03-27 22:00:01,15.08866711,0.0001929,53.2175,215.9909,36.3307,328.8817,-0.002276,-0.00036355,0.0,0 STARLINK-3127,1 49450U 21104AU  22086.91668981 -.00036355  00000-0 -22760-2 0  9999,2 49450  53.2175 215.9909 0001929  36.3307 328.8817 15.08866711 22032,6917.799,95.436,540.998,538.3290000000002,0.0
49450.0,STARLINK-3127,PAYLOAD,2022-03-28 14:00:01,15.0887781,0.0001847,53.2179,212.9983,37.1912,351.2362,-0.0036918,-0.00058627,0.0,0 STARLINK-3127,1 49450U 21104AU  22087.58335648 -.00058627  00000-0 -36918-2 0  9990,2 49450  53.2179 212.9983 0001847  37.1912 351.2362 15.08877810  3604,6917.765,95.435,540.908,538.352,0.0
49450.0,STARLINK-3127,PAYLOAD,2022-03-28 22:00:00,15.08858774,0.000189,53.2175,211.5018,35.0104,4.9666,-0.0031191999999999,-0.00049615,0.0,0 STARLINK-3127,1 49450U 21104AU  22087.91667824 -.00049615  00000-0 -31192-2 0  9997,2 49450  53.2175 211.5018 0001890  35.0104   4.9666 15.08858774 22194,6917.823,95.436,540.995,538.381,0.0
49450.0,STARLINK-3127,PAYLOAD,2022-03-29 14:00:01,15.08818223,0.0001989,53.2178,208.5096,42.1656,20.9819,-0.00050026,-8.236e-05,0.0,0 STARLINK-3127,1 49450U 21104AU  22088.58334491 -.00008236  00000-0 -50026-3 0  9994,2 49450  53.2178 208.5096 0001989  42.1656  20.9819 15.08818223 22293,6917.946999999999,95.439,541.188,538.436,0.0
49450.0,STARLINK-3127,PAYLOAD,2022-03-29 22:00:00,15.0883562,0.0002008,53.2175,207.013,39.9289,34.7818,-0.00019117,-3.329e-05,0.0,0 STARLINK-3127,1 49450U 21104AU  22088.91667824 -.00003329  00000-0 -19117-3 0  9994,2 49450  53.2175 207.0130 0002008  39.9289  34.7818 15.08835620  3574,6917.894,95.438,541.148,538.37,0.0
49450.0,STARLINK-3127,PAYLOAD,2022-03-30 02:00:01,15.08827789,0.0001895,53.2178,206.264,42.6519,217.8554,0.001194,0.00018759,0.0,0 STARLINK-3127,1 49450U 21104AU  22089.08334491  .00018759  00000-0  11940-2 0  9990,2 49450  53.2178 206.2640 0001895  42.6519 217.8554 15.08827789 22360,6917.918000000002,95.438,541.094,538.472,0.0
49450.0,STARLINK-3127,PAYLOAD,2022-03-30 14:00:01,15.08865208,0.0001998,53.2177,204.0208,40.9461,57.011,-0.0032616,-0.0005186,0.0,0 STARLINK-3127,1 49450U 21104AU  22089.58335648 -.00051860  00000-0 -32616-2 0  9995,2 49450  53.2177 204.0208 0001998  40.9461  57.0110 15.08865208  3578,6917.803000000001,95.436,541.0509999999998,538.286,0.0
49450.0,STARLINK-3127,PAYLOAD,2022-03-30 22:00:00,15.08855703,0.0001957,53.2176,202.5242,36.06,73.4323,-0.003331,-0.00052936,0.0,0 STARLINK-3127,1 49450U 21104AU  22089.91667824 -.00052936  00000-0 -33310-2 0  9993,2 49450  53.2176 202.5242 0001957  36.0600  73.4323 15.08855703 22493,6917.831999999999,95.437,541.0509999999998,538.344,0.0
49450.0,STARLINK-3127,PAYLOAD,2022-03-31 14:00:01,15.08845451,0.0001988,53.2179,199.5321,36.0428,96.6235,-0.0010627,-0.00017164,0.0,0 STARLINK-3127,1 49450U 21104AU  22090.58334491 -.00017164  00000-0 -10627-2 0  9999,2 49450  53.2179 199.5321 0001988  36.0428  96.6235 15.08845451 22590,6917.864000000001,95.437,541.104,538.3530000000002,0.0
49450.0,STARLINK-3127,PAYLOAD,2022-03-31 22:00:00,15.08864197,0.0001942,53.2179,198.0352,32.5358,111.7511,-0.0012433,-0.00020034,0.0,0 STARLINK-3127,1 49450U 21104AU  22090.91667824 -.00020034  00000-0 -12433-2 0  9992,2 49450  53.2179 198.0352 0001942  32.5358 111.7511 15.08864197 22641,6917.806,95.436,541.015,538.328,0.0
49450.0,STARLINK-3127,PAYLOAD,2022-04-01 14:00:01,15.08858443,0.0002104,53.2182,195.0432,35.5731,131.9464,-0.0019562,-0.00031303,0.0,0 STARLINK-3127,1 49450U 21104AU  22091.58334491 -.00031303  00000-0 -19562-2 0  9998,2 49450  53.2182 195.0432 0002104  35.5731 131.9464 15.08858443  3603,6917.824000000001,95.436,541.145,538.234,0.0
49450.0,STARLINK-3127,PAYLOAD,2022-04-01 22:00:00,15.08862977,0.0002116,53.2182,193.5462,35.7227,143.4069,-0.0048623999999999,-0.00076899,0.0,0 STARLINK-3127,1 49450U 21104AU  22091.91667824 -.00076899  00000-0 -48624-2 0  9994,2 49450  53.2182 193.5462 0002116  35.7227 143.4069 15.08862977 22791,6917.81,95.436,541.139,538.211,0.0
49450.0,STARLINK-3127,PAYLOAD,2022-04-02 14:00:01,15.08838845,0.0002218,53.2185,190.5544,37.6712,164.6759,-0.00070439,-0.00011481,0.0,0 STARLINK-3127,1 49450U 21104AU  22092.58335648 -.00011481  00000-0 -70439-3 0  9990,2 49450  53.2185 190.5544 0002218  37.6712 164.6759 15.08838845 22894,6917.884,95.438,541.283,538.215,0.0
49450.0,STARLINK-3127,PAYLOAD,2022-04-02 22:00:01,15.08855733,0.0002067,53.2184,189.0574,34.2514,179.69299999999996,-0.004381,-0.00069373,0.0,0 STARLINK-3127,1 49450U 21104AU  22092.91668981 -.00069373  00000-0 -43810-2 0  9991,2 49450  53.2184 189.0574 0002067  34.2514 179.6930 15.08855733  3604,6917.831999999999,95.437,541.127,538.2669999999998,0.0
49450.0,STARLINK-3127,PAYLOAD,2022-04-03 22:00:00,15.08827444,0.0002028,53.2183,184.5686,32.3583,216.2264,-0.0037123,-0.00058868,0.0,0 STARLINK-3127,1 49450U 21104AU  22093.91667824 -.00058868  00000-0 -37123-2 0  9994,2 49450  53.2183 184.5686 0002028  32.3583 216.2264 15.08827444 23090,6917.919,95.438,541.187,538.381,0.0
49450.0,STARLINK-3127,PAYLOAD,2022-04-04 14:00:01,15.08801097,0.0002166,53.2183,181.5773,34.0202,237.6676,0.0018925,0.00029928,0.0,0 STARLINK-3127,1 49450U 21104AU  22094.58334491  .00029928  00000-0  18925-2 0  9991,2 49450  53.2183 181.5773 0002166  34.0202 237.6676 15.08801097 23195,6917.999,95.44,541.363,538.366,0.0
49450.0,STARLINK-3127,PAYLOAD,2022-04-04 22:00:00,15.08850196,0.0002057,53.2179,180.08,34.1097,249.1499,-0.0005438,-8.935e-05,0.0,0 STARLINK-3127,1 49450U 21104AU  22094.91667824 -.00008935  00000-0 -54380-3 0  9990,2 49450  53.2179 180.0800 0002057  34.1097 249.1499 15.08850196  3606,6917.849,95.437,541.137,538.2909999999998,0.0
49450.0,STARLINK-3127,PAYLOAD,2022-04-05 06:00:00,15.08825657,0.0001832,53.218,178.5831,39.0865,255.7179,0.0014269,0.00022485,0.0,0 STARLINK-3127,1 49450U 21104AU  22095.25001157  .00022485  00000-0  14269-2 0  9994,2 49450  53.2180 178.5831 0001832  39.0865 255.7179 15.08825657 23290,6917.924,95.438,541.057,538.5219999999998,0.0
49450.0,STARLINK-3127,PAYLOAD,2022-04-05 14:00:01,15.08828507,0.0002085,53.2177,177.0886,35.5657,270.8948,0.0018549,0.00029347,0.0,0 STARLINK-3127,1 49450U 21104AU  22095.58335648  .00029347  00000-0  18549-2 0  9994,2 49450  53.2177 177.0886 0002085  35.5657 270.8948 15.08828507  3568,6917.916,95.438,541.2230000000002,538.3380000000002,0.0
49450.0,STARLINK-3127,PAYLOAD,2022-04-05 22:00:00,15.08859972,0.0002005,53.2173,175.59099999999995,37.6441,280.3475,-0.0031379,-0.0004991,0.0,0 STARLINK-3127,1 49450U 21104AU  22095.91667824 -.00049910  00000-0 -31379-2 0  9991,2 49450  53.2173 175.5910 0002005  37.6441 280.3475 15.08859972  3562,6917.819,95.436,541.071,538.297,0.0
49450.0,STARLINK-3127,PAYLOAD,2022-04-06 06:00:02,15.08841652,0.0001964,53.2173,174.0943,42.7845,286.8632,0.0010715,0.00016807,0.0,0 STARLINK-3127,1 49450U 21104AU  22096.25002315  .00016807  00000-0  10715-2 0  9995,2 49450  53.2173 174.0943 0001964  42.7845 286.8632 15.08841652 23441,6917.875,95.437,541.099,538.382,0.0
49450.0,STARLINK-3127,PAYLOAD,2022-04-06 14:00:01,15.08831801,0.0002177,53.2172,172.5998,38.0975,303.09,0.0021063,0.00033386,0.0,0 STARLINK-3127,1 49450U 21104AU  22096.58334491  .00033386  00000-0  21063-2 0  9993,2 49450  53.2172 172.5998 0002177  38.0975 303.0900 15.08831801  3591,6917.905,95.438,541.276,538.264,0.0
49450.0,STARLINK-3127,PAYLOAD,2022-04-06 22:00:00,15.08869172,0.0002016,53.2168,171.102,38.2307,314.5636,-0.0032412,-0.00051545,0.0,0 STARLINK-3127,1 49450U 21104AU  22096.91667824 -.00051545  00000-0 -32412-2 0  9998,2 49450  53.2168 171.1020 0002016  38.2307 314.5636 15.08869172  3562,6917.791,95.436,541.0509999999998,538.262,0.0
49450.0,STARLINK-3127,PAYLOAD,2022-04-07 06:00:00,15.08849799,0.0001942,53.2169,169.6054,40.7357,323.6606,0.00049864,7.659e-05,0.0,0 STARLINK-3127,1 49450U 21104AU  22097.25001157  .00007659  00000-0  49864-3 0  9992,2 49450  53.2169 169.6054 0001942  40.7357 323.6606 15.08849799 23598,6917.85,95.437,541.059,538.372,0.0
